{
"type": "FeatureCollection",
"name": "desa",
"crs": { "type": "name", "properties": { "name": "urn:ogc:def:crs:OGC:1.3:CRS84" } },
"features": [
{"type":"Feature","properties":{"fid":1,"nama_desa":"Mekarjaya","kecamatan":"Cikajang","kabupaten":"Garut","provinsi":"Jawa Barat","luas_ha":1408.0806094476302},"geometry":{"type":"Polygon","coordinates":[[[107.828079335079778,-7.37892786167973],[107.828661588058353,-7.378713122024106],[107.829562453483589,-7.378499335549577],[107.830856273434108,-7.378271166461389],[107.831296491286196,-7.378197034360998],[107.831918526000379,-7.378151474384113],[107.832481066878103,-7.378115208589379],[107.833180061711772,-7.377997817710209],[107.833948087204007,-7.37796619155295],[107.83445079273973,-7.37788571500289],[107.834837716237132,-7.377859478671268],[107.835394527360052,-7.377858916261501],[107.835739841272698,-7.377844833512266],[107.835882685340607,-7.377832036284787],[107.836131409284945,-7.377781705820815],[107.836091497966152,-7.377455277235759],[107.835971920670573,-7.377242654643434],[107.835950488736927,-7.37714459727297],[107.835991343388102,-7.3770253726988],[107.836109941265008,-7.376935867835905],[107.83622300301198,-7.376868113971551],[107.83624988805208,-7.376782968154188],[107.836233214902236,-7.376689601430085],[107.836201904498225,-7.376525515069048],[107.836147455943347,-7.376440885708035],[107.835966279720111,-7.376208826606836],[107.835709501808125,-7.375689276026532],[107.835318321714354,-7.375153583069621],[107.835194549815597,-7.374727604404393],[107.834965561216137,-7.373818878828626],[107.834874498380245,-7.373479555803731],[107.834841141390868,-7.373290933649325],[107.834705128401779,-7.373021764169041],[107.834725927025232,-7.372723274822791],[107.834673823876813,-7.372561208250471],[107.834366505221539,-7.37242153210538],[107.834253587020314,-7.372214530983705],[107.834110741946859,-7.372060593065076],[107.833694163295363,-7.3719914776663],[107.833601025058528,-7.371920311278753],[107.833762874079056,-7.37179087800493],[107.83428234382329,-7.371537433653049],[107.834571713624598,-7.371155113184541],[107.834659221494604,-7.370869194215627],[107.834531520710613,-7.370453848132303],[107.834266782049838,-7.370027480597974],[107.834033066296982,-7.369797103921185],[107.835003827172017,-7.369808784118399],[107.83579134801937,-7.370035647378991],[107.836275775421313,-7.370359553315412],[107.836699367471056,-7.370481712029449],[107.837074828336341,-7.370526889806238],[107.838020291883282,-7.370306865748038],[107.838720429754687,-7.369904100974022],[107.839194849496039,-7.369591945004567],[107.839574255920695,-7.36932200766243],[107.840210402582031,-7.369157450292827],[107.840918688862203,-7.369099444760455],[107.841637860622782,-7.36888085266139],[107.842119179044431,-7.36871727706599],[107.8428354747968,-7.368360712858595],[107.842856654250397,-7.368122649203587],[107.842972477590592,-7.367895313791558],[107.842911180880051,-7.367774850677564],[107.842649223905852,-7.367629226594267],[107.843115696919327,-7.367218382856523],[107.843598191882606,-7.366947173073934],[107.843819934517953,-7.366719164222446],[107.843939058136627,-7.36641627493466],[107.844374808022209,-7.36593386985543],[107.844709167443455,-7.36556918551348],[107.845022346857661,-7.364849631267901],[107.845186044103599,-7.364418052763239],[107.845433397045241,-7.364053921845511],[107.845485970968383,-7.363993161183045],[107.845780524910268,-7.36391197820775],[107.846043803780859,-7.363672375097428],[107.846179804420103,-7.363643185158562],[107.846457323131446,-7.363560221915567],[107.846551785024943,-7.363542626068209],[107.846767972004756,-7.363630001622415],[107.847265014164009,-7.363564524312197],[107.847364090711096,-7.363677192913732],[107.847373127341442,-7.363907510256663],[107.847174989252011,-7.364276993374888],[107.847216431554529,-7.364394370121258],[107.847321423603731,-7.364400690444724],[107.847446990423805,-7.364218612690493],[107.847623191047106,-7.363968233210548],[107.847619947354914,-7.36346029629406],[107.847622017972213,-7.363192141946048],[107.84756337084454,-7.362894160908583],[107.847652542556972,-7.362640558802401],[107.847695452547256,-7.362251292213648],[107.847961354658821,-7.361830393527812],[107.848190513584001,-7.361579677258674],[107.848693214879731,-7.361512274959542],[107.849107488517575,-7.361222613825441],[107.84925783509091,-7.361070591462205],[107.849524989485403,-7.360846069459686],[107.849700319565855,-7.360459736937962],[107.849845314879303,-7.360062267697481],[107.850149886021043,-7.359773304756747],[107.850375428784389,-7.359549047628251],[107.850447947768814,-7.359057624274222],[107.86657765139455,-7.359180046056608],[107.866416049676005,-7.361832517767148],[107.866362782444497,-7.364662643559996],[107.866361269571073,-7.36627967291408],[107.866318162772657,-7.368836266936002],[107.866208653614777,-7.372178016819179],[107.866173258702631,-7.374080619711037],[107.866026546741693,-7.375341884962934],[107.865881672511378,-7.376888495055922],[107.865370890831144,-7.378948717324213],[107.864404397937449,-7.380524380725443],[107.864084059066471,-7.380716673951156],[107.863563855796045,-7.381314504882472],[107.861568745939536,-7.382219041599335],[107.858928427941393,-7.382806678552024],[107.856547671681597,-7.383012162817879],[107.855035799254907,-7.383128847375152],[107.853213350085994,-7.383104833222152],[107.851438919264325,-7.383139954676738],[107.850319839212034,-7.383218443826371],[107.84933245319705,-7.383403099589119],[107.848798483636628,-7.383715649267101],[107.848670824851069,-7.384239625192599],[107.848657517222094,-7.385880533073682],[107.848604214399828,-7.386855855183633],[107.848454031007918,-7.387582105655608],[107.848111532884104,-7.388036113926526],[107.84705244474705,-7.388185556768097],[107.845373189073413,-7.388208164126727],[107.845027413708067,-7.388150919863134],[107.84439571817154,-7.388083608928618],[107.843702341544486,-7.387683768376023],[107.843344351917693,-7.387579040152133],[107.842274641289322,-7.387930670948824],[107.841883733773827,-7.388266084537433],[107.841889816531491,-7.389217252785758],[107.841653588870699,-7.38952790061399],[107.841154651183814,-7.389733211705366],[107.840629459975858,-7.389558206476516],[107.840150922049801,-7.389228331948964],[107.839609005756259,-7.389231783320392],[107.839170681415652,-7.389603168004218],[107.838633321810292,-7.390319996530887],[107.838177965619934,-7.39082228073845],[107.837839964808722,-7.391050344859532],[107.837316632089824,-7.391166632231022],[107.836895068213252,-7.391365502414157],[107.836563552691914,-7.391676755665945],[107.836458675165275,-7.392040072329316],[107.836490045502487,-7.392289565650353],[107.836628913002102,-7.392585935376975],[107.836727879034584,-7.393161977189753],[107.836682553753349,-7.393524914893083],[107.836577600528685,-7.393876342031744],[107.836556551798921,-7.39431046608362],[107.836600630780183,-7.39468472484755],[107.836503075962469,-7.395262017622199],[107.836475312766822,-7.395577283059414],[107.836584595891907,-7.395903566087135],[107.836712960560575,-7.39641996970431],[107.836691912793682,-7.396854093714846],[107.836616736033918,-7.397205331485828],[107.836381451228647,-7.39766460013061],[107.836156215153139,-7.397832496372254],[107.836123636659238,-7.39832614469967],[107.835982685700174,-7.398636185974497],[107.835840860861339,-7.398809496181791],[107.835756280438346,-7.399553168821359],[107.835575009773706,-7.400077489604623],[107.835523235750131,-7.400363182836363],[107.835210226289945,-7.400775386265353],[107.834902069966788,-7.401015151567917],[107.834118703486553,-7.401448184785346],[107.833376225005438,-7.401756110178704],[107.832900520182605,-7.401872094302888],[107.831910344361546,-7.402562079928591],[107.831506747115,-7.402778670829271],[107.830739645064966,-7.402961902913924],[107.829672080376497,-7.403658322994204],[107.828721420039855,-7.404009182471888],[107.827544869673957,-7.404426872022637],[107.826718661571462,-7.404681815764234],[107.825952801715175,-7.405061222591494],[107.825602720636638,-7.405265579899497],[107.825073522080075,-7.405399732840005],[107.824639609728166,-7.405533280376226],[107.824438413003335,-7.405736691918471],[107.824140793170329,-7.405762361617383],[107.823813926177976,-7.405871448580474],[107.823225966271508,-7.406130820529534],[107.82273245978358,-7.406258799693203],[107.822556105403137,-7.406622571898874],[107.822336283724908,-7.406707198428421],[107.821955248443928,-7.406727450991887],[107.821665436841272,-7.407044381717075],[107.821314064813635,-7.407046610268823],[107.821082823409,-7.407208595638881],[107.820815205881118,-7.40726974414825],[107.820750490213598,-7.407395002570828],[107.820817589311943,-7.407644273188986],[107.821174146051348,-7.408456496619337],[107.821346690003523,-7.409365008941443],[107.821240702323323,-7.409555925889147],[107.821003163800341,-7.409664445353613],[107.82054158664468,-7.410131094542465],[107.820286370229795,-7.410269451665075],[107.819680724242872,-7.410558659728848],[107.819091846828584,-7.410675351495174],[107.818638584349657,-7.410577157333862],[107.817877260550603,-7.410736556825666],[107.817018530509287,-7.410563643188287],[107.816307970843553,-7.410276831040424],[107.816004654473105,-7.410344148834361],[107.815677289132324,-7.410375947715313],[107.815337257110173,-7.410288923130148],[107.814891422913476,-7.410422539441351],[107.814491910922726,-7.410347781039012],[107.814319993262103,-7.410473717863378],[107.813616144426319,-7.410305761834455],[107.813349088666754,-7.410456081074112],[107.81293811818999,-7.410452735887881],[107.81266325724178,-7.410311790132214],[107.812524845704004,-7.410086748536079],[107.812213836768635,-7.409880633926519],[107.811997701778722,-7.409608522013292],[107.811477872274338,-7.409344275084029],[107.811075645629373,-7.408841476263609],[107.810959059207079,-7.408301200471775],[107.810771421727111,-7.40782677065036],[107.810341266980586,-7.407615461464955],[107.809762337505603,-7.407422927043471],[107.809326943683502,-7.407324608484267],[107.80888088201425,-7.40742254853628],[107.808439381871594,-7.407300486762315],[107.808260753661202,-7.407307559659822],[107.807884538470844,-7.407149413836671],[107.807610584082255,-7.407151142919924],[107.807365917836293,-7.407075399248485],[107.806937834760816,-7.407191059596898],[107.806538926772348,-7.407211412090195],[107.806460789658175,-7.407098945927022],[107.806869237171341,-7.406703984827116],[107.807395288531893,-7.406070473052504],[107.807519864985181,-7.405992399221619],[107.80784546050333,-7.405681193641825],[107.808432419912492,-7.405261324702483],[107.808770979617535,-7.405116502806155],[107.809556205219096,-7.404029518896284],[107.81031394796544,-7.403305365600811],[107.810870144669408,-7.402731114567221],[107.811646314547474,-7.402096022100777],[107.811712391544532,-7.401245442330552],[107.81209708279161,-7.400862520462645],[107.812344911836732,-7.400498298560359],[107.812772420408479,-7.400293461702565],[107.813075091046414,-7.400125084392215],[107.813527287344499,-7.400056830305901],[107.813734859437844,-7.399918779492337],[107.814095914482678,-7.399565732196602],[107.815069808184717,-7.399119633587764],[107.815789391040525,-7.398954564624512],[107.816556615926274,-7.398789193385693],[107.817276045872049,-7.398600342720868],[107.817791746957738,-7.398216589778452],[107.81853295757675,-7.397706561249082],[107.819309445161267,-7.397124966969741],[107.819938746779314,-7.396811835642597],[107.820355581948462,-7.396803251574922],[107.821028835890232,-7.396846549661408],[107.821326224192973,-7.39678521479587],[107.8219443303133,-7.396585109927348],[107.822432628276005,-7.396576071301729],[107.822794957244895,-7.396425147074071],[107.822864341848401,-7.396097724859414],[107.822714022895696,-7.395872762057686],[107.822647002720529,-7.395635381138727],[107.822824225374831,-7.395408343079511],[107.822876575726028,-7.395211821863309],[107.822864195482609,-7.394201226893146],[107.822659675455427,-7.393881484935698],[107.822336919290109,-7.393699229813873],[107.822240690393741,-7.393551210711423],[107.822363786547569,-7.393241283845479],[107.82261228316105,-7.392984069099018],[107.822772092905637,-7.392828483365029],[107.82275927560832,-7.392685881215615],[107.822537457647556,-7.392455425541822],[107.822394342590812,-7.392426606102704],[107.822356004628332,-7.392016634156189],[107.822074672532651,-7.391792500001943],[107.822007163151952,-7.391477834840782],[107.821880667956506,-7.391252720164649],[107.8218317421059,-7.391050894986453],[107.821717724042855,-7.390914878369164],[107.821722357739546,-7.390706768994979],[107.822143706792986,-7.390472241419823],[107.822135636926546,-7.39013936453902],[107.82224652059331,-7.389781954158673],[107.8222126666154,-7.389140093107695],[107.821999024405301,-7.388321015450916],[107.82180950623713,-7.387549345903632],[107.821842029349213,-7.387043802871665],[107.822035191524236,-7.386513463030265],[107.821967344752863,-7.386145293337607],[107.82188227418446,-7.385878299991909],[107.821955125585049,-7.385158476726309],[107.822021305180883,-7.384325737981087],[107.822764189264859,-7.384083233303072],[107.824024942372702,-7.383801779744547],[107.82529168548669,-7.383526230405232],[107.825898276821249,-7.383391596749792],[107.826933068742477,-7.383165073276266],[107.827647022630799,-7.382120154704637],[107.82808339054975,-7.381439646906897],[107.828088211794551,-7.381261262930591],[107.828133017907021,-7.380815095489733],[107.828095549079123,-7.380541857603719],[107.828171188807019,-7.380261958051696],[107.828442400689582,-7.379832191718663],[107.828465313927467,-7.37968936385062],[107.828314283607824,-7.379351449155947],[107.828167081256353,-7.379147275148143],[107.828079335079778,-7.37892786167973]]]}}
]
}
