{
"type": "FeatureCollection",
"name": "rw",
"crs": { "type": "name", "properties": { "name": "urn:ogc:def:crs:OGC:1.3:CRS84" } },
"features": [
{"type":"Feature","properties":{"fid":1,"rw":"01","nama_rw":"RW 01","luas_ha":22.558764849693798},"geometry":{"type":"Polygon","coordinates":[[[107.837434146417124,-7.378734120140351],[107.837457458308521,-7.378830277003169],[107.837481293983259,-7.379008573028951],[107.837563584735364,-7.379306406709743],[107.8376564061777,-7.379327532623831],[107.837812803245967,-7.379381300264087],[107.837921756547289,-7.379410821075913],[107.837953062460713,-7.379425728749244],[107.838021414999062,-7.379465893424574],[107.838034799947266,-7.379488468332029],[107.838032233699721,-7.379530972122185],[107.838136512512278,-7.379569020070389],[107.838222629470536,-7.379576970130046],[107.838266193944321,-7.379586134849467],[107.838448794901595,-7.379596303993086],[107.838607679952773,-7.379595293853161],[107.838679436049247,-7.379575954319368],[107.838826544455344,-7.379507983226421],[107.838941431255549,-7.379429831162901],[107.839018735252182,-7.379390628840335],[107.839069618656652,-7.379361036164006],[107.839108424256068,-7.379365510235983],[107.83916061484274,-7.379392559157354],[107.839194011051802,-7.379438610889532],[107.839235367771039,-7.379472337846541],[107.839326065762521,-7.379457126514522],[107.839403649783762,-7.37938770907247],[107.839441762530512,-7.379283608537637],[107.839493302432217,-7.379208691731874],[107.839534656043995,-7.37916782964642],[107.839624823835123,-7.37914365208553],[107.839656876653464,-7.379127397433038],[107.8396786016162,-7.379123010523827],[107.839721325611734,-7.379074586396104],[107.839747215929933,-7.378981893582202],[107.839811080520889,-7.378911619212021],[107.839889757733076,-7.378865326830891],[107.839969919817676,-7.378829410808976],[107.840002505721543,-7.378822594400349],[107.840050292781356,-7.37882653919682],[107.840200093532829,-7.378884124569588],[107.840229941636068,-7.378892904272154],[107.840260356015705,-7.378916314918721],[107.840375815017822,-7.37900197150612],[107.840435149861889,-7.379037000214541],[107.840469371333043,-7.37906416327713],[107.840504119920155,-7.379099820460122],[107.840580140871168,-7.379155986681317],[107.84062197952359,-7.379191126660277],[107.840642837073375,-7.379199019358278],[107.840673230395666,-7.379219125520062],[107.840740387101491,-7.379220114498501],[107.840790496343331,-7.3792174352745],[107.840844876488873,-7.379217089281097],[107.840927406163161,-7.379255746974828],[107.84099654174959,-7.379270413696574],[107.841076429787492,-7.37926565662965],[107.841151444431375,-7.379238270630983],[107.841216414238275,-7.37919300943299],[107.841256812845728,-7.379150737078857],[107.841317361007427,-7.379079539513134],[107.841364566294786,-7.378992376074295],[107.841396889534607,-7.378870373289634],[107.841401036487596,-7.378779235121192],[107.841401292333956,-7.378745243606506],[107.841444314102588,-7.378669436760623],[107.84153936360407,-7.378595187162709],[107.841663300327014,-7.378527362867704],[107.841705352575076,-7.378521902355146],[107.841746832473049,-7.378500866787783],[107.841868820787298,-7.378498202114194],[107.841967204799246,-7.378501824697076],[107.842093921784794,-7.378499129866638],[107.84216146072464,-7.378485953793458],[107.842192582677939,-7.37847206534247],[107.84228717164369,-7.378473823685382],[107.842279411242572,-7.378665538134916],[107.842276509735953,-7.378951637938084],[107.842323881157455,-7.3789645546696],[107.842561291998393,-7.378967764142574],[107.842791173067695,-7.378976686401902],[107.842971863589653,-7.378984033419855],[107.843214954781402,-7.378988150532685],[107.843464617835977,-7.378984672364817],[107.843668897438107,-7.378983371417218],[107.843728997896051,-7.37847219719117],[107.843788808632581,-7.37850769443036],[107.843877258520592,-7.378732785733447],[107.843952136326649,-7.37890603454722],[107.844028278129784,-7.378981082487006],[107.844069963034883,-7.378992146909748],[107.84433286623775,-7.378988583921485],[107.844596630619634,-7.378971797039482],[107.844744129527356,-7.378965192369093],[107.84488692386725,-7.378962394269089],[107.8449750223443,-7.378984492804921],[107.845219083021277,-7.378992379279811],[107.845332517189249,-7.378983158999149],[107.845432554053019,-7.378949475899974],[107.845589304933227,-7.378910710551361],[107.845643163644723,-7.378902814028653],[107.845704570134444,-7.378892036916561],[107.845776053682883,-7.378830210931205],[107.845798123436026,-7.378731877632264],[107.845836606633299,-7.378538079569804],[107.845927286417734,-7.378372273655756],[107.84603052637253,-7.3782479307309],[107.846119827804401,-7.378162387191046],[107.846199185011983,-7.378148663164907],[107.846312612817073,-7.378138498603385],[107.84636460407809,-7.378134390574351],[107.846395855595119,-7.378140800492216],[107.846401342004356,-7.377667741581542],[107.84640965756968,-7.377045487423128],[107.843144719122307,-7.377024740487115],[107.843050181792663,-7.377031007262634],[107.842874648905436,-7.377090662679385],[107.842672140906203,-7.377073068409703],[107.842514304680336,-7.376941890209071],[107.842356806157937,-7.376863582885589],[107.842167273241131,-7.376804362595846],[107.841696067858578,-7.376771482650086],[107.84148981306987,-7.376759576589509],[107.841298533342083,-7.376723026910429],[107.841120747018238,-7.376726046185228],[107.840851941006775,-7.376693766094832],[107.840658914387745,-7.376679887161502],[107.840569822364003,-7.376650240522036],[107.84045751455298,-7.376539543368543],[107.840387252942591,-7.376496558624605],[107.840296395993519,-7.376486750587029],[107.840214357895306,-7.376525038843125],[107.840168185480323,-7.376551769053196],[107.840048058862465,-7.37654970040319],[107.839933510277831,-7.376532489617672],[107.839861562007187,-7.376521617099139],[107.839793432821793,-7.376516385275459],[107.839667559480674,-7.376503023076005],[107.839515512651374,-7.376537979650526],[107.839399632645382,-7.376608584544698],[107.839332141789569,-7.376703430109938],[107.839283433173733,-7.376777384640969],[107.839232977603018,-7.376874010245142],[107.839153625940696,-7.376888677154406],[107.839066497594501,-7.376870347694693],[107.838988356936937,-7.376778316176982],[107.838943497784157,-7.376714398058057],[107.838842864199975,-7.376654611092461],[107.838673215858961,-7.376599039383811],[107.838550095331883,-7.376572441046951],[107.838396747313524,-7.376551699757447],[107.838245206487244,-7.376517728600589],[107.838205135108836,-7.376759689759224],[107.838145124374222,-7.377137737563775],[107.838062416900854,-7.377477691516424],[107.83802723631554,-7.37763511814254],[107.837902362428736,-7.377630246688462],[107.837782028811006,-7.378040779575676],[107.837642022916754,-7.378036004249201],[107.837578420442497,-7.378740756660733],[107.837434146417124,-7.378734120140351]]]}},
{"type":"Feature","properties":{"fid":2,"rw":"02","nama_rw":"RW 02","luas_ha":16.533585643449165},"geometry":{"type":"Polygon","coordinates":[[[107.831723776852712,-7.379223100273965],[107.831704116851043,-7.379106147728875],[107.831686516593649,-7.379015618910548],[107.831722219713953,-7.378681155878003],[107.831756002293915,-7.378639398107532],[107.831875082408288,-7.378625424528315],[107.831897802617107,-7.378554467606859],[107.831924240451741,-7.378250276857325],[107.831934481205238,-7.378150365823479],[107.83235542463008,-7.378124091872768],[107.832474540586531,-7.378115782987906],[107.83273245883926,-7.378071659306737],[107.832938430091289,-7.378038722998565],[107.833184544368194,-7.377997506481047],[107.833435106750613,-7.377986475057749],[107.833756593920484,-7.377974049272927],[107.833942857541999,-7.377965313922236],[107.834281588281968,-7.377913123234197],[107.83445401823495,-7.377885592099732],[107.834682804089255,-7.377870921550315],[107.834881302775202,-7.377859052557185],[107.835331143999412,-7.377857897788219],[107.835420604303536,-7.377858180324482],[107.835717870225466,-7.377846086423994],[107.835877114602766,-7.377834018291036],[107.836018780148123,-7.377804200565812],[107.836131094012046,-7.377780948199381],[107.836123077500005,-7.377721042273962],[107.836112645350084,-7.377626693797022],[107.836092666607172,-7.377453145436935],[107.835974095210403,-7.37724995813631],[107.835948832185821,-7.37714437174985],[107.835993445739263,-7.377021346635823],[107.836126184606883,-7.376924670718902],[107.836224180675629,-7.376867398367439],[107.836250119975233,-7.376782258555727],[107.836200241934208,-7.376524345416516],[107.836125752387929,-7.376411518274812],[107.835994163640393,-7.376243347739059],[107.835963677433412,-7.376208607087001],[107.83584961279432,-7.375970456768636],[107.835710694505309,-7.375690920749484],[107.835371035188899,-7.375225713434664],[107.835316647132785,-7.375150525150238],[107.835177322617014,-7.374658553379943],[107.835049239227999,-7.374149515077395],[107.834882497525385,-7.373510426584886],[107.834841370311835,-7.373289751985931],[107.834703477875209,-7.373022482766064],[107.834724252462422,-7.372720216895877],[107.83466837840308,-7.372560062580398],[107.834412249473658,-7.372438945152928],[107.834504841130553,-7.372424195349722],[107.834821685490851,-7.372425962290044],[107.834933456158964,-7.37245263417471],[107.835086632530647,-7.372595176106377],[107.835152404931208,-7.372675957343643],[107.835378234556671,-7.372791601453558],[107.835499707095735,-7.373005156933905],[107.835544781715925,-7.373103064427055],[107.835569603292342,-7.373287963913741],[107.835654210548938,-7.373504585710305],[107.835688900252464,-7.373605391564699],[107.835767805003798,-7.37366909424207],[107.835955264760784,-7.37370000620219],[107.836168535936523,-7.373774185958272],[107.836236428708446,-7.37389083180984],[107.836246331050248,-7.373960637367406],[107.836236391017295,-7.374033401383648],[107.836423025440993,-7.374083201668336],[107.836463818315224,-7.37410277021992],[107.836487214339769,-7.374138027975471],[107.836494514839231,-7.374170555409227],[107.83652442275509,-7.37418877680344],[107.836634130961741,-7.374188552376748],[107.836681992798916,-7.374204299351345],[107.83673159503185,-7.37427054822415],[107.836770899462437,-7.374353385398281],[107.836772710008987,-7.374637568270462],[107.836814899833726,-7.374727940441812],[107.836896509794215,-7.374770853925161],[107.837170893365723,-7.374787994857691],[107.837273153097783,-7.37480622877542],[107.837353256683059,-7.374909578398859],[107.837441858830047,-7.375159219867667],[107.837519028043843,-7.375395715566338],[107.837528726105106,-7.375433420633536],[107.83760663152465,-7.375488631608788],[107.837910079611305,-7.375614166421078],[107.838099606065413,-7.375672444804436],[107.838341720570881,-7.375671850651662],[107.838350416833322,-7.376145766745941],[107.838317008391357,-7.376246060636062],[107.83824493388876,-7.376519374619253],[107.83814588511521,-7.377132945145919],[107.83802723631554,-7.377635118142575],[107.837901313021675,-7.377633826870418],[107.837782028811006,-7.378040779575725],[107.83764272166998,-7.37803602808242],[107.837578423846523,-7.378740718942067],[107.837434321574761,-7.378734842630578],[107.837360315377069,-7.378687616998516],[107.837301655206929,-7.378684213071425],[107.837172940792826,-7.378670396337957],[107.837095404870993,-7.378673249400832],[107.83698127385307,-7.378721654974271],[107.836700878845875,-7.378726268869664],[107.836590443447278,-7.378760960459519],[107.836437259961158,-7.378766182304492],[107.836361380766036,-7.378732202189822],[107.836050406955707,-7.378539206768947],[107.83583813909614,-7.378474463123877],[107.835482491101118,-7.378469168249779],[107.835294324027984,-7.37847602806191],[107.835070868217088,-7.378585082050078],[107.834977492070038,-7.378625329974597],[107.83469496680884,-7.37866677870044],[107.834479294710533,-7.378661538615576],[107.834442164070552,-7.378623063380942],[107.834350855336936,-7.37854244442622],[107.834001905236576,-7.37854938006976],[107.833885933219193,-7.378605822088124],[107.833763521304817,-7.378690630043899],[107.833622785446678,-7.378719848254534],[107.833452761463391,-7.378753973127769],[107.833318591655498,-7.378774652062094],[107.833120050909798,-7.378786297689569],[107.832697668496266,-7.378846571845348],[107.832592714551652,-7.378851014339451],[107.832513548191471,-7.378894948389503],[107.832443665013713,-7.378911442595369],[107.832352939314333,-7.378922403978005],[107.832238654028998,-7.378946733174245],[107.832112947633917,-7.37895980473655],[107.83204414234973,-7.378997063812982],[107.832018308521768,-7.379024608624644],[107.831998703174506,-7.379064860239695],[107.831992598508236,-7.379220215085883],[107.831723776852712,-7.379223100273965]]]}},
{"type":"Feature","properties":{"fid":3,"rw":"03","nama_rw":"RW 03","luas_ha":16.619733466632923},"geometry":{"type":"Polygon","coordinates":[[[107.831523518330229,-7.386462881521429],[107.831393992650476,-7.38618235328384],[107.831283828958377,-7.385970521592791],[107.831212759673704,-7.385848177003886],[107.831170889002593,-7.385747237529562],[107.831082700421518,-7.385589917062772],[107.831013340886315,-7.385417633638603],[107.830978129909269,-7.385301133718398],[107.8309317390095,-7.385233283237727],[107.830928820864386,-7.385199566678478],[107.830818067845456,-7.385001232462301],[107.830779842909777,-7.384942101253208],[107.830764763997493,-7.384909136546089],[107.830693892686213,-7.384817826773467],[107.830629552145936,-7.38469071635538],[107.830541557336574,-7.384563755975382],[107.830493040314536,-7.384480400740463],[107.830440171653208,-7.384389550654645],[107.830430467333699,-7.384337397611713],[107.830561824243816,-7.384243818775618],[107.830688434947859,-7.384172846601754],[107.830775984508094,-7.384123712667257],[107.830912116972243,-7.384062125870265],[107.830954303818828,-7.38400046038112],[107.830962058865111,-7.383838482812882],[107.830958220114155,-7.383766314102706],[107.830856899325767,-7.383563197008508],[107.830695635412198,-7.383392845775781],[107.830613822274643,-7.383281364244159],[107.830589178718014,-7.383232267329772],[107.830547544811495,-7.383168434739198],[107.83050982852518,-7.383082986834329],[107.830484028250652,-7.382958330637919],[107.830484684325953,-7.382849024781359],[107.830429535525923,-7.382679349683515],[107.830289059897709,-7.382483227604617],[107.830071599386201,-7.382297039427793],[107.829890400385651,-7.38218011548837],[107.829786413970254,-7.382089015294669],[107.829726648683717,-7.382043514457539],[107.829663853878841,-7.381946755438783],[107.829633153782098,-7.381901745013097],[107.829632952062454,-7.381870035282465],[107.829613161886869,-7.381840136490248],[107.829598137897662,-7.381762640965122],[107.829549696623928,-7.381691092250646],[107.829505851020571,-7.381598261266483],[107.829439780177225,-7.381517715798855],[107.829355084227544,-7.381377914550756],[107.829344437162106,-7.381350993937891],[107.829349985416144,-7.381266958308382],[107.82947978609306,-7.381060013956218],[107.829587803400543,-7.380828581051246],[107.829624834685191,-7.380700152872895],[107.829618844428808,-7.380608431321199],[107.829573806110233,-7.38054057185443],[107.829476720160955,-7.380471692859388],[107.829113740502919,-7.380358619161075],[107.828832010919101,-7.380268644864596],[107.828734249266788,-7.380199769923284],[107.8286754585572,-7.380094888775633],[107.828619142016336,-7.379847629611622],[107.828563952675793,-7.379724508623144],[107.828458358191057,-7.379592935800273],[107.828405480378891,-7.379567632065574],[107.828464425319495,-7.37969680163297],[107.82844368221798,-7.3798359218724],[107.828205462029956,-7.380211216556242],[107.828169960278743,-7.380261369496141],[107.828124451481159,-7.380438430035231],[107.828095366729869,-7.380541169178715],[107.828125830015239,-7.380761604140825],[107.828132937900421,-7.38081654742119],[107.828106865002184,-7.381074111878719],[107.828089452655064,-7.381258753525653],[107.828083193733363,-7.381443661862052],[107.827802772656113,-7.381878598028533],[107.82783364418124,-7.381950595698191],[107.8278509689884,-7.382017956267406],[107.827898787896501,-7.382097942989546],[107.827964867252746,-7.38217983810924],[107.827957203340944,-7.382250055809014],[107.82789271346445,-7.382311862425218],[107.827880104218778,-7.382348376297274],[107.827879181501203,-7.382415852474836],[107.827899038118687,-7.382456208857761],[107.82796837233056,-7.382518516937847],[107.827993635651339,-7.382558839052213],[107.828019463276874,-7.3825816153037],[107.828090329378014,-7.38267225117763],[107.828178814446318,-7.38277019711057],[107.828202781905745,-7.382819298552866],[107.828202414971116,-7.382867879502702],[107.828234578287621,-7.38293042306247],[107.828270584173993,-7.383065810196164],[107.828272727528699,-7.383084013595453],[107.828312509583085,-7.383175521085723],[107.82831600461536,-7.383193715917251],[107.828357951512189,-7.383306800172283],[107.828388793263798,-7.383374074997074],[107.828427663544801,-7.383428479572813],[107.828496328602782,-7.383491803779959],[107.828500235629988,-7.383681033187938],[107.828512804084994,-7.38374437559595],[107.828520154665455,-7.383837438005283],[107.82854574651256,-7.384035638435522],[107.828564172326281,-7.384169787507719],[107.828579401266254,-7.384226366010127],[107.828600717049355,-7.384283580626782],[107.828614830376068,-7.384377274853592],[107.828678554619998,-7.384513835543208],[107.828741569117128,-7.384857534458249],[107.828753378371786,-7.385013990625685],[107.828751490579251,-7.385142196118463],[107.828766114849827,-7.385316176702542],[107.828823061936291,-7.38555600978531],[107.828873456793218,-7.385828270113246],[107.828895882214098,-7.385953622601479],[107.828894725872757,-7.385984328905113],[107.828918430019556,-7.386098203332417],[107.828920689381178,-7.386134622946868],[107.828936362523592,-7.386154764632422],[107.82893878503765,-7.38621682191114],[107.828968417234762,-7.386306369437656],[107.828968765009435,-7.386361018143069],[107.828984566972451,-7.386401400083841],[107.829005046568639,-7.386539584231238],[107.829063922946418,-7.386763886771957],[107.829122503129639,-7.386941636687014],[107.829126888829748,-7.386993560962154],[107.829137374289814,-7.387048145356856],[107.829153197785331,-7.387091900651689],[107.829180244358625,-7.387093753203573],[107.829450995095584,-7.387050878908623],[107.829509014434876,-7.387034318000294],[107.829572388964536,-7.387009626686702],[107.829710303653826,-7.387015498782636],[107.829846943961613,-7.387033523557254],[107.829871408902903,-7.386948355878244],[107.829894207116709,-7.386919873749227],[107.829952949492522,-7.386910729930483],[107.830032143221388,-7.386929119128149],[107.830076124465009,-7.386936936498498],[107.830179506730119,-7.386932907029009],[107.830247185378468,-7.386947321036602],[107.830562859123773,-7.386954089011129],[107.830629664290413,-7.386937472221831],[107.830750317611361,-7.386886103906113],[107.830812486390187,-7.386884359953825],[107.830966983262186,-7.386840873222462],[107.831024912210026,-7.386810143991043],[107.831116982447554,-7.386727920754013],[107.831139948135387,-7.386725750885158],[107.831149302476817,-7.386708823978214],[107.831240132712509,-7.386644150836197],[107.831258776927328,-7.38660017691186],[107.831260593888473,-7.386567105015458],[107.831299466036413,-7.386515580986169],[107.831360718247183,-7.386476059525266],[107.831448362581312,-7.386441768145236],[107.831494053257416,-7.386399646646649],[107.831523518330229,-7.386462881521429]]]}},
{"type":"Feature","properties":{"fid":4,"rw":"04","nama_rw":"RW 04","luas_ha":23.859822034456396},"geometry":{"type":"Polygon","coordinates":[[[107.830430483537768,-7.384337386067926],[107.830564565720621,-7.384242282029541],[107.830681231691329,-7.384176884419438],[107.830776110596673,-7.384123655624371],[107.830898582711924,-7.38406222088462],[107.831086529142226,-7.38394723158666],[107.831205246656097,-7.383858873207991],[107.831811021304148,-7.383859281935003],[107.831915374948878,-7.384191178805599],[107.831999655405326,-7.384581889898385],[107.832034958331334,-7.384773886676641],[107.832034153652955,-7.384915080553294],[107.832058409618384,-7.384977866156242],[107.832149021538768,-7.38502492091245],[107.832329356882838,-7.384979548324359],[107.832935447965639,-7.384895750062364],[107.833103393679735,-7.385580214030839],[107.832419440921512,-7.385746158520572],[107.832269112593266,-7.385954643382687],[107.832291708110034,-7.386024243755607],[107.832538354125802,-7.38622340381826],[107.83268541095039,-7.386571189050857],[107.832657376164676,-7.38671765897495],[107.83266675220375,-7.386851983843097],[107.832594588381966,-7.387025951118273],[107.832562809672567,-7.38711971170555],[107.832594597157254,-7.387294719896876],[107.832572465564638,-7.387565330355899],[107.832469565643848,-7.38772928646016],[107.832448671850955,-7.387926743128564],[107.832435777447856,-7.388042497696333],[107.832414612655953,-7.388197429374122],[107.832413504958851,-7.388290995191573],[107.832394913315454,-7.388314928234747],[107.832201237870748,-7.388406314933263],[107.832198252749677,-7.38847267558495],[107.832266050979726,-7.388683177548714],[107.832331364773708,-7.388771218299388],[107.83251647545724,-7.388940149391868],[107.832620208726937,-7.389174237904439],[107.832681072284188,-7.389366071987162],[107.832727415108366,-7.389418510695299],[107.832804987540356,-7.389558355998539],[107.832862448802572,-7.38975106215453],[107.832881338040409,-7.389907440398098],[107.832937486520208,-7.390027859467701],[107.832977089572253,-7.390092248410617],[107.833070117698512,-7.390117173311793],[107.833170151456002,-7.390171822354771],[107.833248136889054,-7.39024277161931],[107.833283442157864,-7.390301234086238],[107.833285471530942,-7.390352253211812],[107.833262777306572,-7.390400877853857],[107.833206264332716,-7.390490543031423],[107.833201629751514,-7.390565419454135],[107.833222635851286,-7.390652890935976],[107.833277807849797,-7.390753753820515],[107.83343341017995,-7.390837818255591],[107.833502680736601,-7.39087820359695],[107.83358006392649,-7.390988281102906],[107.833630715776636,-7.391048347022913],[107.833659319289666,-7.391124713216045],[107.833654673970827,-7.391197888617262],[107.833615102971194,-7.391272136557671],[107.833615791950734,-7.391380149924577],[107.833622162683497,-7.391443899435751],[107.833493367169368,-7.391555287480178],[107.833405037752655,-7.39173275991585],[107.833297302622299,-7.391940124385685],[107.833261893784069,-7.391999036277399],[107.833216027910979,-7.392021441688017],[107.83307033389525,-7.392021517191328],[107.83306408731363,-7.392244396751348],[107.833058275040287,-7.392401782448549],[107.832923482720076,-7.392508105394437],[107.832362021572791,-7.39251082312892],[107.832201485670524,-7.392454857451153],[107.83208413512898,-7.392356941112889],[107.831975896147327,-7.392218141172735],[107.831942506201273,-7.392192837279041],[107.831858931384261,-7.392047076299551],[107.831771015401259,-7.391888584840844],[107.831532636722528,-7.39151671433251],[107.831488871303634,-7.391467661300982],[107.83136318120151,-7.391264331238062],[107.831328071143844,-7.391236486577418],[107.831167507657099,-7.391309801826719],[107.831037078803334,-7.39129872266776],[107.830930496702635,-7.391018722857141],[107.83074437724504,-7.390691598015119],[107.830560254680478,-7.390410389236154],[107.830503135462578,-7.390271264022672],[107.830451084820183,-7.390125302324678],[107.830257367466359,-7.389942816328895],[107.830142801495896,-7.389880603896244],[107.829873828632472,-7.389654367430966],[107.829611563527877,-7.389411077404896],[107.82939370983442,-7.389184516047176],[107.829283595361531,-7.38901850956283],[107.829092005240909,-7.388902351061971],[107.828913581217464,-7.388712962746641],[107.82883940166839,-7.388570543114063],[107.828810849948056,-7.388368296435721],[107.828782060096984,-7.388128627627769],[107.828767280858315,-7.38794840752887],[107.829073412719012,-7.387855458258625],[107.829261982693581,-7.387764955696219],[107.829435841600315,-7.387638823876105],[107.829490597282444,-7.387540664804507],[107.829474538183547,-7.387293260560479],[107.829473227983897,-7.387087439035426],[107.829462656347872,-7.387047550347907],[107.829572201897875,-7.387009699569647],[107.829846943961613,-7.387033523557254],[107.829872468789162,-7.386947031747521],[107.829896301154307,-7.386919547792156],[107.82995410823537,-7.386910998996757],[107.830068981376883,-7.386935666862944],[107.830167514119935,-7.386933374459115],[107.830255490608039,-7.386947499101765],[107.830562859123773,-7.386954089011129],[107.830641197843917,-7.386932561797377],[107.83074832298972,-7.386886953119303],[107.830812486390187,-7.386884359953825],[107.830967861991937,-7.386840407087878],[107.831025632271789,-7.386809500940716],[107.831116982447554,-7.386727920754013],[107.83113952274725,-7.386725791077147],[107.831149664713124,-7.386708566057999],[107.831240244548283,-7.3866438870623],[107.831258881173596,-7.38659827944569],[107.831262564287329,-7.386564493302871],[107.831299302849786,-7.386515797285846],[107.83136104061785,-7.386475933395817],[107.831448362581312,-7.386441768145236],[107.83149391123257,-7.386399777577089],[107.831472343055495,-7.386352045579124],[107.831448723107968,-7.386300889220974],[107.831404243148228,-7.386204553953053],[107.831369750730602,-7.386135738980075],[107.831286792141171,-7.385976219445475],[107.831212415349796,-7.385847346927385],[107.831182702620168,-7.385775717146303],[107.831115874249804,-7.385649096198518],[107.831043231714546,-7.385510365207144],[107.831031160496849,-7.385461896117619],[107.830993566747793,-7.385352208441918],[107.83097647742845,-7.385298716830794],[107.830931789391897,-7.385233356926117],[107.830928429596867,-7.385198866005184],[107.830822171932994,-7.385008581982501],[107.830779876212546,-7.384942152770194],[107.830764604638034,-7.38490893122928],[107.830694242408512,-7.384818277351775],[107.830629751574264,-7.384691110343803],[107.830600008116235,-7.384648089749482],[107.830537648080053,-7.384557039633536],[107.830440366666963,-7.384389885768528],[107.830430483537768,-7.384337386067926]]]}},
{"type":"Feature","properties":{"fid":5,"rw":"05","nama_rw":"RW 05","luas_ha":15.843612147959767},"geometry":{"type":"Polygon","coordinates":[[[107.832586948928252,-7.392509734460241],[107.832679815581699,-7.392509284944174],[107.832824651527218,-7.392508583834908],[107.832924331451167,-7.392507435923364],[107.833058322756884,-7.392400490369],[107.833064326269181,-7.392235870735398],[107.83307033389525,-7.392021517191328],[107.833216033712716,-7.392021438853879],[107.833261893784069,-7.391999036277399],[107.833293071665807,-7.391947163692412],[107.83329808256272,-7.391938623186595],[107.83334227308292,-7.391853566974283],[107.833386617611779,-7.391768214309783],[107.833429579356533,-7.391683450664716],[107.833462300403838,-7.391617707177833],[107.833493112540793,-7.391555799082854],[107.833561589779478,-7.391496285565241],[107.833622162683497,-7.391443899435751],[107.833615779744292,-7.391378236300916],[107.833615391853087,-7.391317425625933],[107.833615414586092,-7.391271551867809],[107.833650384057208,-7.391293388260732],[107.833716277989524,-7.39133868556488],[107.833757715582308,-7.391356708621027],[107.833845404155284,-7.391412711650671],[107.833928632102442,-7.391437273283631],[107.833980179505133,-7.391437370844206],[107.83401840187264,-7.391418841383921],[107.834114707983289,-7.391420304377513],[107.834194601453447,-7.391455187294851],[107.834241736799285,-7.391502474774509],[107.834240572785646,-7.391520343368049],[107.834281100342835,-7.391582145006259],[107.834282357155473,-7.39159399218355],[107.834334602421919,-7.391635417986106],[107.834378668453951,-7.391638779502728],[107.834431937688336,-7.391653838264187],[107.834565208990242,-7.391660742544691],[107.834558434057485,-7.391796871742105],[107.834563015102361,-7.391826715900316],[107.834619402140731,-7.391871330917859],[107.834776474484642,-7.391932892792173],[107.83487137631397,-7.391970091322022],[107.834904039187293,-7.392014961811101],[107.834895123374807,-7.392086463245497],[107.834863725224437,-7.392239758791107],[107.834846094208913,-7.392280696487004],[107.834827133772393,-7.392380329383847],[107.8347769703457,-7.392530342159598],[107.834753918276945,-7.392656367596021],[107.834812102624468,-7.392695122025391],[107.834966696450266,-7.392754526529121],[107.835028245311918,-7.39278645525825],[107.835035376026511,-7.392835740778207],[107.834982911902912,-7.393025743226075],[107.834974777549945,-7.393086182770193],[107.835007359120539,-7.393118295746739],[107.835221456032286,-7.393156058275157],[107.835455311394952,-7.393219210941409],[107.835581469686133,-7.393228614657457],[107.835720494564299,-7.393251544977622],[107.835749559651319,-7.393266669612768],[107.835823649369914,-7.393261094986991],[107.835943887226207,-7.393277340518752],[107.836137341072714,-7.393284614770121],[107.836210551627317,-7.393274793017707],[107.836206042639688,-7.393369230712151],[107.836228824193554,-7.393467747383173],[107.836277072846457,-7.393551642932347],[107.836344851896271,-7.393625207789619],[107.836373037877493,-7.39363608530481],[107.836388650566846,-7.393679363035773],[107.836404220238393,-7.3937826035004],[107.836408280476505,-7.393951408133518],[107.836373322970445,-7.394080911407364],[107.836312561545697,-7.394172305014227],[107.836249867981536,-7.39422798859809],[107.83601973043136,-7.394346826701305],[107.835935704644044,-7.394397542841869],[107.835873623980717,-7.394415799104811],[107.835731034030616,-7.394501759734898],[107.835664932399155,-7.394557464969055],[107.835580857633914,-7.394600526596363],[107.835427533232789,-7.394606605470929],[107.835325583059173,-7.394652332405981],[107.835239299833646,-7.394749842099657],[107.835217023983972,-7.394863955154884],[107.835212151032252,-7.394901409578349],[107.835181968370335,-7.394978149532061],[107.835169439071691,-7.39515088729727],[107.835114516916391,-7.395356215048498],[107.834978823836067,-7.395454889699794],[107.834856632124072,-7.395533065646411],[107.834741435450155,-7.395639264641068],[107.834671735519137,-7.395665224090295],[107.834561894491358,-7.395676129336271],[107.834503541853593,-7.395744543203554],[107.834387069510115,-7.395784408718768],[107.834261008099787,-7.395790313900681],[107.834157934021448,-7.395793521216082],[107.834012868665084,-7.395892255322185],[107.833877538837271,-7.396047913195392],[107.833752855876185,-7.39613631121543],[107.833588645154862,-7.396305761304533],[107.833432492772673,-7.396402864783482],[107.83330147656207,-7.396433466749258],[107.833115357884935,-7.396507796338208],[107.833045641361096,-7.396531204122068],[107.83284538056013,-7.396525673387266],[107.832618431293554,-7.396476935029376],[107.832516100354823,-7.396463126620413],[107.832332385485714,-7.396380091821971],[107.832173562826313,-7.396325816838225],[107.831937165776836,-7.396265230646561],[107.831648249213544,-7.39625260807545],[107.831362990075093,-7.396279086670637],[107.831076265504905,-7.396342997952638],[107.83099375807727,-7.396364785660921],[107.830956265093732,-7.396364173386744],[107.830859290086735,-7.396388604617677],[107.83086069138767,-7.396073897665164],[107.830915745302974,-7.396022515718058],[107.831032006840928,-7.395949481443473],[107.831218060914196,-7.395864946674522],[107.831516870663563,-7.395692090159081],[107.831687523599456,-7.395597446731008],[107.83187838545858,-7.395465251293612],[107.832066485074847,-7.395300753065571],[107.832089233750295,-7.395260633348401],[107.83216312876479,-7.39522444119329],[107.832351407404644,-7.394954475537563],[107.832486124685147,-7.394702711584212],[107.83256608131164,-7.394548256636769],[107.832803991378867,-7.394579064499765],[107.833019635865895,-7.394592152577493],[107.833018474581763,-7.394543679535947],[107.832992480935204,-7.394475802096451],[107.832936353236832,-7.394225251458285],[107.832901525101263,-7.394108099200883],[107.832878825519145,-7.39402233958495],[107.832862534735014,-7.394006283003186],[107.832856945382503,-7.393931471551678],[107.832802331805951,-7.393784676354493],[107.832774428152064,-7.39368449072206],[107.832752032699403,-7.393512825214993],[107.832734748911861,-7.393474661047427],[107.832739199556428,-7.393103799930794],[107.832741278457675,-7.392895405883944],[107.832722811842061,-7.39280536664774],[107.83265826228758,-7.392703712814639],[107.83258334796497,-7.392580010944227],[107.832583860948205,-7.392526849300426],[107.832586948928252,-7.392509734460241]]]}},
{"type":"Feature","properties":{"fid":6,"rw":"06","nama_rw":"RW 06","luas_ha":17.66659138444399},"geometry":{"type":"Polygon","coordinates":[[[107.834114707967103,-7.391420311570145],[107.8341945665656,-7.391455152294393],[107.834241668976347,-7.391502406732676],[107.834240580441957,-7.391520354835404],[107.834281138561195,-7.391582203286707],[107.834282357410743,-7.39159399251671],[107.834334602421919,-7.391635417986106],[107.834378671221415,-7.391638780285066],[107.834431939495047,-7.391653838774937],[107.834565208987655,-7.391660742596573],[107.834558483005765,-7.391797198885871],[107.834563016028341,-7.391826716632987],[107.834619832983208,-7.391871494031125],[107.834871338523897,-7.391970076604862],[107.834904039187293,-7.392014961811101],[107.834893407071306,-7.392094842773738],[107.834863933964073,-7.392238739659195],[107.834846094208913,-7.392280696487004],[107.834826641945739,-7.39238180018234],[107.834776648258895,-7.392532103005045],[107.834753918276945,-7.392656367596021],[107.83481272321626,-7.392695360495277],[107.834965560572826,-7.392754090055082],[107.835028636377842,-7.392789158198076],[107.835034489134983,-7.39283895271751],[107.834982960509763,-7.393025567193018],[107.834975956488265,-7.393087344752955],[107.83500880332204,-7.393118550476172],[107.835228720264638,-7.393158019984225],[107.835452955544739,-7.393218574744578],[107.835580868877912,-7.393228569873885],[107.835722350409327,-7.393252510706095],[107.835748076939069,-7.393265898052058],[107.835823649369914,-7.393261094986991],[107.83594176627102,-7.393277053953355],[107.836137389769377,-7.393284608237093],[107.836210535207101,-7.393275136927745],[107.836206060154552,-7.393368863874794],[107.836218378884325,-7.393422577643562],[107.836694203303139,-7.393429063069141],[107.836727862835914,-7.393163057832939],[107.83662963195755,-7.392590425014871],[107.836490059082053,-7.392289853079821],[107.836456122430491,-7.392037195433337],[107.836563516524123,-7.391676630957106],[107.836894338816776,-7.391364294454813],[107.837316417664638,-7.391166411364242],[107.837841887394958,-7.391048563940719],[107.83817614724758,-7.390824447612959],[107.838633842701682,-7.390317169321731],[107.839170728552276,-7.389602814332092],[107.839607567466132,-7.389231966013575],[107.84015080330046,-7.389228293607125],[107.840630904359585,-7.389560981489373],[107.840939119305844,-7.389661293830145],[107.841045206299981,-7.389696552691668],[107.841154816514745,-7.389733171179276],[107.841654795499835,-7.38952692148044],[107.841889754430724,-7.389217244921636],[107.841884169545096,-7.388356834707688],[107.840551481052984,-7.388332154786347],[107.840549635780278,-7.388310052797451],[107.839436715768315,-7.388278015866462],[107.838769619980354,-7.388414945440491],[107.838535378284391,-7.388557624458245],[107.838326586862507,-7.388683130817775],[107.838167611530665,-7.388871259303199],[107.838072777484001,-7.388963720155402],[107.837996230491839,-7.388984620064349],[107.837318094234817,-7.388994038657369],[107.836549496542929,-7.388980216794834],[107.836203867953571,-7.389292008770886],[107.836193959134306,-7.38934140263265],[107.836236850910936,-7.389387058518712],[107.836342886399848,-7.38944762230897],[107.836329450273951,-7.389478326912545],[107.836004843701119,-7.389746608082389],[107.836069165147435,-7.389812540432056],[107.836096054054892,-7.389887216187359],[107.836090899121928,-7.390013978201212],[107.836089130028398,-7.390003783073912],[107.836067693858837,-7.390082593612046],[107.835909921906492,-7.390359382113205],[107.835801357690585,-7.390436620532611],[107.835556786541716,-7.390429670783814],[107.835336857503663,-7.390412357796747],[107.835222855623513,-7.390438598759801],[107.835120998469577,-7.390498783763634],[107.835024432234121,-7.390587002680031],[107.834911651276599,-7.390671072034649],[107.834843129628368,-7.390748055682077],[107.834799798224267,-7.390767042932566],[107.834591145376251,-7.390781127637672],[107.834280841365512,-7.390754182399445],[107.834227063736535,-7.390738364161862],[107.834116257916762,-7.390731413786871],[107.834114707967103,-7.391420311570145]]]}},
{"type":"Feature","properties":{"fid":7,"rw":"07","nama_rw":"RW 07","luas_ha":12.39738198738555},"geometry":{"type":"Polygon","coordinates":[[[107.831934369967996,-7.378151451078162],[107.831897725286296,-7.378554709116837],[107.83187472853443,-7.378625466054051],[107.831756899056359,-7.378639292876134],[107.831722008938783,-7.37868313039618],[107.831686661176192,-7.379014264475977],[107.831725370363444,-7.379223083171728],[107.831684956006512,-7.380233931943802],[107.831598993906553,-7.38064953835391],[107.831570986739806,-7.38106817932045],[107.831584841444325,-7.381370881958939],[107.831327776605249,-7.381408235084249],[107.831178867448941,-7.381438097802732],[107.830928274966723,-7.381555360021505],[107.830858717210418,-7.381603431168786],[107.830904720977514,-7.381736673500506],[107.831019888602981,-7.382027676747708],[107.831083354005543,-7.382227150034971],[107.831121625336195,-7.382350234915554],[107.831228788604676,-7.382320636922342],[107.831337471269094,-7.382663563739384],[107.830411147226272,-7.382653677264065],[107.830289294177405,-7.382483554689521],[107.830150665728482,-7.382364735517343],[107.830076902628051,-7.382301580030412],[107.83001962221104,-7.38226349965623],[107.829968269781034,-7.382230363006432],[107.829922231512327,-7.382200655462849],[107.8298805785019,-7.382171510756983],[107.829806952125594,-7.382107008323383],[107.829789163740855,-7.382091424308736],[107.829728179775216,-7.382044680116821],[107.8296335327463,-7.381902300625134],[107.829631455526268,-7.381867774331357],[107.829612988543104,-7.381839242362752],[107.829597327548953,-7.381761444064439],[107.829550089403639,-7.381691672394148],[107.829505813473574,-7.381598215493819],[107.829442542574625,-7.38152108337594],[107.829354666116501,-7.381376857376457],[107.829344447120803,-7.38135084310035],[107.82935046479497,-7.381266194023431],[107.829404597478671,-7.381179888997331],[107.829471993050404,-7.381072438596479],[107.829518536314097,-7.380976989535679],[107.829579286342309,-7.380846829313136],[107.82962478594817,-7.380699406622245],[107.829618844428808,-7.380608431321199],[107.829574023748094,-7.380540899770608],[107.829476694426845,-7.380471684842819],[107.82913540445162,-7.380365367822442],[107.828828200811643,-7.380265960572471],[107.828732760803476,-7.380197114543127],[107.828675211505811,-7.380093804091644],[107.828618385143898,-7.379845941118139],[107.828563722079039,-7.379724221295163],[107.828508355300158,-7.379655233206802],[107.828457382217849,-7.379592468765772],[107.828406007155124,-7.379567884144996],[107.828314388256942,-7.379350326312815],[107.828169763586587,-7.379149452359519],[107.828101178258109,-7.37898190557683],[107.828079426854245,-7.378927608928884],[107.828661253728242,-7.378713309140127],[107.829216339630534,-7.378581361358481],[107.829562575135114,-7.378498791780661],[107.829962988068175,-7.378428211414541],[107.83108977121276,-7.378231399585042],[107.831292330914735,-7.378197794994399],[107.831554619375879,-7.378178270696906],[107.831847993270685,-7.378156848056509],[107.831934369967996,-7.378151451078162]]]}}
]
}
